NORAD_CAT_ID,OBJECT_NAME,OBJECT_TYPE,EPOCH,MEAN_MOTION,ECCENTRICITY,INCLINATION,RA_OF_ASC_NODE,ARG_OF_PERICENTER,MEAN_ANOMALY,BSTAR,MEAN_MOTION_DOT,MEAN_MOTION_DDOT,TLE_LINE0,TLE_LINE1,TLE_LINE2,SEMIMAJOR_AXIS,PERIOD,APOGEE,PERIGEE,DECAYED
52701.0,STARLINK-4003,PAYLOAD,2022-07-21 14:00:01,15.73157582,0.0003335,53.2163,340.3389,9.7139,122.5941,0.00015327,0.00020908,0.0,0 STARLINK-4003,1 52701U 22053AX  22202.58335648  .00020908  00000-0  15327-3 0  9997,2 52701  53.2163 340.3389 0003335   9.7139 122.5941 15.73157582  1302,6728.016,91.536,352.125,347.63699999999994,0.0
52701.0,STARLINK-4003,PAYLOAD,2022-07-21 20:00:01,15.73137597,0.0003495,53.216,339.103,9.3754,99.5204,0.00071933,0.00101308,0.0,0 STARLINK-4003,1 52701U 22053AX  22202.83334491  .00101308  00000-0  71933-3 0  9999,2 52701  53.2160 339.1030 0003495   9.3754  99.5204 15.73137597 10459,6728.073,91.537,352.29,347.587,0.0
52701.0,STARLINK-4003,PAYLOAD,2022-07-21 22:00:00,15.73172097,0.0003492,53.2157,338.6902,8.992,212.1162,0.00038004,0.00053001,0.0,0 STARLINK-4003,1 52701U 22053AX  22202.91667824  .00053001  00000-0  38004-3 0  9995,2 52701  53.2157 338.6902 0003492   8.9920 212.1162 15.73172097  1308,6727.975,91.535,352.189,347.49,0.0
52701.0,STARLINK-4003,PAYLOAD,2022-07-22 06:00:00,15.73187119,0.0003297,53.216,337.0386,10.2613,299.7792,0.00074829,0.00105688,0.0,0 STARLINK-4003,1 52701U 22053AX  22203.25001157  .00105688  00000-0  74829-3 0  9998,2 52701  53.2160 337.0386 0003297  10.2613 299.7792 15.73187119  1300,6727.932,91.534,352.015,347.579,0.0
52701.0,STARLINK-4003,PAYLOAD,2022-07-22 12:00:00,15.73263092,0.0003388,53.2164,335.8022,10.8472,275.8979,0.00015983,0.00021933,0.0,0 STARLINK-4003,1 52701U 22053AX  22203.50001157  .00021933  00000-0  15983-3 0  9992,2 52701  53.2164 335.8022 0003388  10.8472 275.8979 15.73263092 10562,6727.715,91.53,351.86,347.301,0.0
52701.0,STARLINK-4003,PAYLOAD,2022-07-22 22:00:00,15.73317026,0.000368,53.2163,333.73800000000006,9.3668,118.6409,-0.001116,-0.00155244,0.0,0 STARLINK-4003,1 52701U 22053AX  22203.91667824 -.00155244  00000-0 -11160-2 0  9993,2 52701  53.2163 333.7380 0003680   9.3668 118.6409 15.73317026  1301,6727.562,91.526,351.902,346.951,0.0
52701.0,STARLINK-4003,PAYLOAD,2022-07-23 06:00:00,15.73203089,0.0003471,53.2161,332.0895,8.519,208.5153,-3.5148e-05,-5.556e-05,0.0,0 STARLINK-4003,1 52701U 22053AX  22204.25001157 -.00005556  00000-0 -35148-4 0  9996,2 52701  53.2161 332.0895 0003471   8.5190 208.5153 15.73203089 10680,6727.886,91.533,352.087,347.416,0.0
52701.0,STARLINK-4003,PAYLOAD,2022-07-23 14:00:01,15.73203693,0.0003651,53.2159,330.4417,6.8506,299.1394,-0.00031771,-0.00044999,0.0,0 STARLINK-4003,1 52701U 22053AX  22204.58335648 -.00044999  00000-0 -31771-3 0  9998,2 52701  53.2159 330.4417 0003651   6.8506 299.1394 15.73203693  1304,6727.885,91.533,352.206,347.293,0.0
52701.0,STARLINK-4003,PAYLOAD,2022-07-23 22:00:00,15.7316967,0.0003776999999999,53.2154,328.7924,4.5578,30.282,0.00013794,0.0001875999999999,0.0,0 STARLINK-4003,1 52701U 22053AX  22204.91667824  .00018760  00000-0  13794-3 0  9999,2 52701  53.2154 328.7924 0003777   4.5578  30.2820 15.73169670  1309,6727.982,91.535,352.38800000000015,347.305,0.0
52701.0,STARLINK-4003,PAYLOAD,2022-07-24 04:00:00,15.73146367,0.0003553999999999,53.2158,327.5536,4.7817,6.7314,0.00062655,0.00088056,0.0,0 STARLINK-4003,1 52701U 22053AX  22205.16667824  .00088056  00000-0  62655-3 0  9992,2 52701  53.2158 327.5536 0003554   4.7817   6.7314 15.73146367 10821,6728.0480000000025,91.536,352.30400000000014,347.522,0.0
52701.0,STARLINK-4003,PAYLOAD,2022-07-24 14:00:01,15.73253865,0.0003745,53.2167,325.4895,6.1957,206.4305,-0.00075047,-0.00104935,0.0,0 STARLINK-4003,1 52701U 22053AX  22205.58334491 -.00104935  00000-0 -75047-3 0  9995,2 52701  53.2167 325.4895 0003745   6.1957 206.4305 15.73253865 10897,6727.7419999999975,91.53,352.126,347.087,0.0
52701.0,STARLINK-4003,PAYLOAD,2022-07-24 22:00:00,15.73260358,0.0003674,53.2166,323.8352,5.625,295.9464,-0.0046285,-0.00607442,0.0,0 STARLINK-4003,1 52701U 22053AX  22205.91667824 -.00607442  00000-0 -46285-2 0  9993,2 52701  53.2166 323.8352 0003674   5.6250 295.9464 15.73260358  1307,6727.723000000001,91.53,352.06,347.116,0.0
52701.0,STARLINK-4003,PAYLOAD,2022-07-25 06:00:00,15.72866504,0.0003578,53.2174,322.1793,2.267,28.0603,-0.0084465,-0.01052837,0.0,0 STARLINK-4003,1 52701U 22053AX  22206.25001157 -.01052837  00000-0 -84465-2 0  9997,2 52701  53.2174 322.1793 0003578   2.2670  28.0603 15.72866504 10998,6728.846,91.553,353.119,348.30400000000014,0.0
52701.0,STARLINK-4003,PAYLOAD,2022-07-25 14:00:01,15.72108255,0.0003973,53.2173,320.5313,3.1094,115.2814,-0.0087303,-0.01053495,0.0,0 STARLINK-4003,1 52701U 22053AX  22206.58334491 -.01053495  00000-0 -87303-2 0  9998,2 52701  53.2173 320.5313 0003973   3.1094 115.2814 15.72108255  1306,6731.01,91.597,355.5490000000001,350.2,0.0
52701.0,STARLINK-4003,PAYLOAD,2022-07-25 22:00:00,15.71351306,0.0003588,53.2171,318.8828,5.0194,200.524,-0.0090592,-0.01057751,0.0,0 STARLINK-4003,1 52701U 22053AX  22206.91667824 -.01057751  00000-0 -90592-2 0  9997,2 52701  53.2171 318.8828 0003588   5.0194 200.5240 15.71351306 11105,6733.170999999999,91.641,357.452,352.62,0.0
52701.0,STARLINK-4003,PAYLOAD,2022-07-26 14:00:01,15.69835212,0.0004866,53.2173,315.5924,323.5693,53.5402,-0.0096833,-0.01060919,0.0,0 STARLINK-4003,1 52701U 22053AX  22207.58334491 -.01060919  00000-0 -96833-2 0  9996,2 52701  53.2173 315.5924 0004866 323.5693  53.5402 15.69835212 11207,6737.505,91.729,362.649,356.092,0.0
52701.0,STARLINK-4003,PAYLOAD,2022-07-26 22:00:00,15.69080559,0.0001136,53.2173,313.9493,320.4608,141.0628,-0.010087,-0.01068066,0.0,0 STARLINK-4003,1 52701U 22053AX  22207.91667824 -.01068066  00000-0 -10087-1 0  9999,2 52701  53.2173 313.9493 0001136 320.4608 141.0628 15.69080559  1308,6739.666,91.773,362.296,360.765,0.0
52701.0,STARLINK-4003,PAYLOAD,2022-07-27 14:00:01,15.67551303,0.0001373,53.2175,310.6704,51.7196,215.8991,-0.0105569999999999,-0.01051284,0.0,0 STARLINK-4003,1 52701U 22053AX  22208.58334491 -.01051284  00000-0 -10557-1 0  9990,2 52701  53.2175 310.6704 0001373  51.7196 215.8991 15.67551303 11366,6744.0480000000025,91.863,366.839,364.987,0.0
52701.0,STARLINK-4003,PAYLOAD,2022-07-27 22:00:00,15.66792581,0.0001046,53.2172,309.0326,67.3898,281.9062,-0.0109,-0.0105202,0.0,0 STARLINK-4003,1 52701U 22053AX  22208.91667824 -.01052020  00000-0 -10900-1 0  9997,2 52701  53.2172 309.0326 0001046  67.3898 281.9062 15.66792581  1304,6746.225,91.908,368.796,367.385,0.0
52701.0,STARLINK-4003,PAYLOAD,2022-07-28 06:00:00,15.66031175,0.000121,53.2174,307.3961,56.7993,13.2624,-0.011202,-0.01048633,0.0,0 STARLINK-4003,1 52701U 22053AX  22209.25001157 -.01048633  00000-0 -11202-1 0  9997,2 52701  53.2174 307.3961 0001210  56.7993  13.2624 15.66031175 11466,6748.4119999999975,91.952,371.093,369.46,0.0
52701.0,STARLINK-4003,PAYLOAD,2022-07-28 14:00:01,15.65272664,0.000152,53.2172,305.7649,48.1406,101.7711,-0.011563,-0.0104973999999999,0.0,0 STARLINK-4003,1 52701U 22053AX  22209.58334491 -.01049740  00000-0 -11563-1 0  9993,2 52701  53.2172 305.7649 0001520  48.1406 101.7711 15.65272664  1308,6750.592,91.997,373.483,371.431,0.0
52701.0,STARLINK-4003,PAYLOAD,2022-07-28 22:00:00,15.64514652,0.000138,53.2174,304.1326,51.8373,177.0137,-0.011956,-0.01052502,0.0,0 STARLINK-4003,1 52701U 22053AX  22209.91667824 -.01052502  00000-0 -11956-1 0  9995,2 52701  53.2174 304.1326 0001380  51.8373 177.0137 15.64514652  1306,6752.772,92.041,375.569,373.705,0.0
52701.0,STARLINK-4003,PAYLOAD,2022-07-29 14:00:01,15.62995947,0.0001312,53.2176,300.876,48.0588,335.9312,-0.012694,-0.01068393,0.0,0 STARLINK-4003,1 52701U 22053AX  22210.58334491 -.01068393  00000-0 -12694-1 0  9996,2 52701  53.2176 300.8760 0001312  48.0588 335.9312 15.62995947  1302,6757.146,92.131,379.897,378.124,0.0
52701.0,STARLINK-4003,PAYLOAD,2022-07-29 22:00:00,15.62234674,0.0001346,53.2174,299.249,49.9055,50.2872,-0.013038,-0.01065275,0.0,0 STARLINK-4003,1 52701U 22053AX  22210.91667824 -.01065275  00000-0 -13038-1 0  9991,2 52701  53.2174 299.2490 0001346  49.9055  50.2872 15.62234674 11725,6759.340999999999,92.176,382.115,380.296,0.0
52701.0,STARLINK-4003,PAYLOAD,2022-07-30 14:00:01,15.60715342,0.0001478,53.2175,296.0038,49.6549,200.2009,-0.0138139999999999,-0.01063946,0.0,0 STARLINK-4003,1 52701U 22053AX  22211.58334491 -.01063946  00000-0 -13814-1 0  9991,2 52701  53.2175 296.0038 0001478  49.6549 200.2009 15.60715342  1306,6763.727,92.265,386.591,384.592,0.0
52701.0,STARLINK-4003,PAYLOAD,2022-07-30 20:00:01,15.60146695,0.0001351999999999,53.2171,294.7878,57.9302,157.1087,-0.014152,-0.01066038,0.0,0 STARLINK-4003,1 52701U 22053AX  22211.83334491 -.01066038  00000-0 -14152-1 0  9990,2 52701  53.2171 294.7878 0001352  57.9302 157.1087 15.60146695 11877,6765.37,92.299,388.15,386.32,0.0
52701.0,STARLINK-4003,PAYLOAD,2022-07-30 22:00:00,15.59957271,0.0001173,53.2173,294.3821,57.1733,266.146,-0.014266,-0.01066689,0.0,0 STARLINK-4003,1 52701U 22053AX  22211.91667824 -.01066689  00000-0 -14266-1 0  9996,2 52701  53.2173 294.3821 0001173  57.1733 266.1460 15.59957271  1305,6765.918000000002,92.31,388.576,386.989,0.0
52701.0,STARLINK-4003,PAYLOAD,2022-07-31 14:00:01,15.58436573,0.0001496,53.2175,291.1481,46.9194,60.5875,-0.015059,-0.01062809,0.0,0 STARLINK-4003,1 52701U 22053AX  22212.58334491 -.01062809  00000-0 -15059-1 0  9992,2 52701  53.2175 291.1481 0001496  46.9194  60.5875 15.58436573 11986,6770.318,92.4,393.196,391.17,0.0
52701.0,STARLINK-4003,PAYLOAD,2022-07-31 22:00:00,15.57678282,0.0001392,53.2175,289.5317,55.7485,122.4841,-0.015534,-0.01065006,0.0,0 STARLINK-4003,1 52701U 22053AX  22212.91667824 -.01065006  00000-0 -15534-1 0  9998,2 52701  53.2175 289.5317 0001392  55.7485 122.4841 15.57678282  1301,6772.515,92.445,395.323,393.43800000000016,0.0
